[{"OBJECT_NAME":"STARLINK-31598","OBJECT_ID":"2024-050K","EPOCH":"2025-09-16T10:24:53.325792","MEAN_MOTION":15.30174807,"ECCENTRICITY":0.00010187,"INCLINATION":53.1607,"RA_OF_ASC_NODE":270.7717,"ARG_OF_PERICENTER":87.5087,"MEAN_ANOMALY":272.6031,"EPHEMERIS_TYPE":0,"CLASSIFICATION_TYPE":"U","NORAD_CAT_ID":59263,"ELEMENT_SET_NO":999,"REV_AT_EPOCH":8386,"BSTAR":4.4980989e-5,"MEAN_MOTION_DOT":9.72e-6,"MEAN_MOTION_DDOT":0},{"OBJECT_NAME":"STARLINK-31645","OBJECT_ID":"2024-050L","EPOCH":"2025-09-16T11:22:28.723584","MEAN_MOTION":15.30188827,"ECCENTRICITY":0.00011834,"INCLINATION":53.1564,"RA_OF_ASC_NODE":270.3294,"ARG_OF_PERICENTER":95.0391,"MEAN_ANOMALY":265.0744,"EPHEMERIS_TYPE":0,"CLASSIFICATION_TYPE":"U","NORAD_CAT_ID":59264,"ELEMENT_SET_NO":999,"REV_AT_EPOCH":8387,"BSTAR":-2.0046346e-5,"MEAN_MOTION_DOT":-9.53e-6,"MEAN_MOTION_DDOT":0},{"OBJECT_NAME":"STARLINK-31646","OBJECT_ID":"2024-050M","EPOCH":"2025-09-16T09:57:32.211360","MEAN_MOTION":15.30192627,"ECCENTRICITY":8.304e-5,"INCLINATION":53.1621,"RA_OF_ASC_NODE":270.6697,"ARG_OF_PERICENTER":94.6253,"MEAN_ANOMALY":265.4842,"EPHEMERIS_TYPE":0,"CLASSIFICATION_TYPE":"U","NORAD_CAT_ID":59265,"ELEMENT_SET_NO":999,"REV_AT_EPOCH":8386,"BSTAR":1.2184611e-5,"MEAN_MOTION_DOT":2.0e-8,"MEAN_MOTION_DDOT":0},{"OBJECT_NAME":"STARLINK-31648","OBJECT_ID":"2024-050N","EPOCH":"2025-09-16T10:58:10.274304","MEAN_MOTION":15.30185339,"ECCENTRICITY":0.00013209,"INCLINATION":53.1618,"RA_OF_ASC_NODE":270.225,"ARG_OF_PERICENTER":77.4665,"MEAN_ANOMALY":282.6483,"EPHEMERIS_TYPE":0,"CLASSIFICATION_TYPE":"U","NORAD_CAT_ID":59266,"ELEMENT_SET_NO":999,"REV_AT_EPOCH":8387,"BSTAR":-1.6157548e-5,"MEAN_MOTION_DOT":-8.37e-6,"MEAN_MOTION_DDOT":0},{"OBJECT_NAME":"STARLINK-31579","OBJECT_ID":"2024-050P","EPOCH":"2025-09-16T09:43:52.596768","MEAN_MOTION":15.30189966,"ECCENTRICITY":0.00019229,"INCLINATION":53.1601,"RA_OF_ASC_NODE":270.6102,"ARG_OF_PERICENTER":56.7309,"MEAN_ANOMALY":303.3876,"EPHEMERIS_TYPE":0,"CLASSIFICATION_TYPE":"U","NORAD_CAT_ID":59267,"ELEMENT_SET_NO":999,"REV_AT_EPOCH":8386,"BSTAR":5.79691e-7,"MEAN_MOTION_DOT":-3.42e-6,"MEAN_MOTION_DDOT":0},{"OBJECT_NAME":"STARLINK-31627","OBJECT_ID":"2024-050Q","EPOCH":"2025-09-16T10:15:44.556192","MEAN_MOTION":15.30256283,"ECCENTRICITY":5.13e-5,"INCLINATION":53.16,"RA_OF_ASC_NODE":270.7504,"ARG_OF_PERICENTER":27.0288,"MEAN_ANOMALY":333.074,"EPHEMERIS_TYPE":0,"CLASSIFICATION_TYPE":"U","NORAD_CAT_ID":59268,"ELEMENT_SET_NO":999,"REV_AT_EPOCH":8386,"BSTAR":-0.00049706781,"MEAN_MOTION_DOT":-0.00015076,"MEAN_MOTION_DDOT":0},{"OBJECT_NAME":"STARLINK-31609","OBJECT_ID":"2024-050R","EPOCH":"2025-09-16T09:52:58.864224","MEAN_MOTION":15.30192333,"ECCENTRICITY":0.0001185,"INCLINATION":53.1595,"RA_OF_ASC_NODE":270.6483,"ARG_OF_PERICENTER":93.6266,"MEAN_ANOMALY":266.4871,"EPHEMERIS_TYPE":0,"CLASSIFICATION_TYPE":"U","NORAD_CAT_ID":59269,"ELEMENT_SET_NO":999,"REV_AT_EPOCH":8386,"BSTAR":6.32509e-6,"MEAN_MOTION_DOT":-1.72e-6,"MEAN_MOTION_DDOT":0},{"OBJECT_NAME":"STARLINK-31616","OBJECT_ID":"2024-050S","EPOCH":"2025-09-16T10:02:06.184896","MEAN_MOTION":15.30186119,"ECCENTRICITY":9.876e-5,"INCLINATION":53.1633,"RA_OF_ASC_NODE":270.6876,"ARG_OF_PERICENTER":94.2367,"MEAN_ANOMALY":265.8747,"EPHEMERIS_TYPE":0,"CLASSIFICATION_TYPE":"U","NORAD_CAT_ID":59270,"ELEMENT_SET_NO":999,"REV_AT_EPOCH":8386,"BSTAR":-2.850813e-6,"MEAN_MOTION_DOT":-4.43e-6,"MEAN_MOTION_DDOT":0},{"OBJECT_NAME":"STARLINK-31630","OBJECT_ID":"2024-050T","EPOCH":"2025-09-16T07:05:21.010848","MEAN_MOTION":15.3019078,"ECCENTRICITY":0.00010347,"INCLINATION":53.1573,"RA_OF_ASC_NODE":258.549,"ARG_OF_PERICENTER":57.6859,"MEAN_ANOMALY":302.4242,"EPHEMERIS_TYPE":0,"CLASSIFICATION_TYPE":"U","NORAD_CAT_ID":59271,"ELEMENT_SET_NO":999,"REV_AT_EPOCH":8402,"BSTAR":1.2843537e-5,"MEAN_MOTION_DOT":2.1e-7,"MEAN_MOTION_DDOT":0},{"OBJECT_NAME":"STARLINK-31623","OBJECT_ID":"2024-050U","EPOCH":"2025-09-16T10:21:41.948064","MEAN_MOTION":15.30187225,"ECCENTRICITY":0.00011172,"INCLINATION":53.1603,"RA_OF_ASC_NODE":270.0713,"ARG_OF_PERICENTER":67.7245,"MEAN_ANOMALY":292.3875,"EPHEMERIS_TYPE":0,"CLASSIFICATION_TYPE":"U","NORAD_CAT_ID":59272,"ELEMENT_SET_NO":999,"REV_AT_EPOCH":8387,"BSTAR":7.226798e-6,"MEAN_MOTION_DOT":-1.45e-6,"MEAN_MOTION_DDOT":0},{"OBJECT_NAME":"STARLINK-31595","OBJECT_ID":"2024-050V","EPOCH":"2025-09-16T07:54:37.349280","MEAN_MOTION":15.3018827,"ECCENTRICITY":0.00014308,"INCLINATION":53.1557,"RA_OF_ASC_NODE":270.8635,"ARG_OF_PERICENTER":82.5084,"MEAN_ANOMALY":277.6079,"EPHEMERIS_TYPE":0,"CLASSIFICATION_TYPE":"U","NORAD_CAT_ID":59273,"ELEMENT_SET_NO":999,"REV_AT_EPOCH":8385,"BSTAR":-7.0233213e-5,"MEAN_MOTION_DOT":-2.438e-5,"MEAN_MOTION_DDOT":0},{"OBJECT_NAME":"STARLINK-31463","OBJECT_ID":"2024-056A","EPOCH":"2025-09-16T00:01:00.579360","MEAN_MOTION":15.27593785,"ECCENTRICITY":0.0001078,"INCLINATION":43.0023,"RA_OF_ASC_NODE":133.3056,"ARG_OF_PERICENTER":281.3464,"MEAN_ANOMALY":78.7266,"EPHEMERIS_TYPE":0,"CLASSIFICATION_TYPE":"U","NORAD_CAT_ID":59296,"ELEMENT_SET_NO":999,"REV_AT_EPOCH":8448,"BSTAR":8.9677086e-5,"MEAN_MOTION_DOT":2.207e-5,"MEAN_MOTION_DDOT":0},{"OBJECT_NAME":"STARLINK-31487","OBJECT_ID":"2024-056B","EPOCH":"2025-09-16T09:08:49.593984","MEAN_MOTION":15.27577506,"ECCENTRICITY":0.00010476,"INCLINATION":43.0022,"RA_OF_ASC_NODE":135.3268,"ARG_OF_PERICENTER":269.8845,"MEAN_ANOMALY":90.1886,"EPHEMERIS_TYPE":0,"CLASSIFICATION_TYPE":"U","NORAD_CAT_ID":59297,"ELEMENT_SET_NO":999,"REV_AT_EPOCH":8461,"BSTAR":3.0721025e-5,"MEAN_MOTION_DOT":5.83e-6,"MEAN_MOTION_DDOT":0},{"OBJECT_NAME":"STARLINK-31386","OBJECT_ID":"2024-056C","EPOCH":"2025-09-16T08:42:55.266624","MEAN_MOTION":15.27576872,"ECCENTRICITY":7.333e-5,"INCLINATION":43.0021,"RA_OF_ASC_NODE":135.1878,"ARG_OF_PERICENTER":350.3993,"MEAN_ANOMALY":9.6845,"EPHEMERIS_TYPE":0,"CLASSIFICATION_TYPE":"U","NORAD_CAT_ID":59298,"ELEMENT_SET_NO":999,"REV_AT_EPOCH":8449,"BSTAR":-2.209727e-6,"MEAN_MOTION_DOT":-3.23e-6,"MEAN_MOTION_DDOT":0},{"OBJECT_NAME":"STARLINK-31409","OBJECT_ID":"2024-056D","EPOCH":"2025-09-16T08:48:01.274688","MEAN_MOTION":15.2755782,"ECCENTRICITY":0.00017334,"INCLINATION":43.0048,"RA_OF_ASC_NODE":128.296,"ARG_OF_PERICENTER":284.6753,"MEAN_ANOMALY":75.3906,"EPHEMERIS_TYPE":0,"CLASSIFICATION_TYPE":"U","NORAD_CAT_ID":59299,"ELEMENT_SET_NO":999,"REV_AT_EPOCH":8469,"BSTAR":0.00022200648,"MEAN_MOTION_DOT":5.848e-5,"MEAN_MOTION_DDOT":0},{"OBJECT_NAME":"STARLINK-31489","OBJECT_ID":"2024-056E","EPOCH":"2025-09-16T08:20:42.178560","MEAN_MOTION":15.27586736,"ECCENTRICITY":0.0001582,"INCLINATION":43.004,"RA_OF_ASC_NODE":135.0731,"ARG_OF_PERICENTER":272.9034,"MEAN_ANOMALY":87.1637,"EPHEMERIS_TYPE":0,"CLASSIFICATION_TYPE":"U","NORAD_CAT_ID":59300,"ELEMENT_SET_NO":999,"REV_AT_EPOCH":8449,"BSTAR":3.4464035e-5,"MEAN_MOTION_DOT":6.86e-6,"MEAN_MOTION_DDOT":0},{"OBJECT_NAME":"STARLINK-31502","OBJECT_ID":"2024-056F","EPOCH":"2025-09-16T08:11:00.559680","MEAN_MOTION":15.2757515,"ECCENTRICITY":9.412e-5,"INCLINATION":42.9984,"RA_OF_ASC_NODE":128.0864,"ARG_OF_PERICENTER":274.275,"MEAN_ANOMALY":85.7994,"EPHEMERIS_TYPE":0,"CLASSIFICATION_TYPE":"U","NORAD_CAT_ID":59301,"ELEMENT_SET_NO":999,"REV_AT_EPOCH":8457,"BSTAR":-5.971973e-6,"MEAN_MOTION_DOT":-4.26e-6,"MEAN_MOTION_DDOT":0},{"OBJECT_NAME":"STARLINK-31447","OBJECT_ID":"2024-056G","EPOCH":"2025-09-16T08:46:37.172928","MEAN_MOTION":15.27580767,"ECCENTRICITY":9.479e-5,"INCLINATION":43.0044,"RA_OF_ASC_NODE":135.2105,"ARG_OF_PERICENTER":293.5219,"MEAN_ANOMALY":66.5533,"EPHEMERIS_TYPE":0,"CLASSIFICATION_TYPE":"U","NORAD_CAT_ID":59302,"ELEMENT_SET_NO":999,"REV_AT_EPOCH":8449,"BSTAR":-2.2837614e-5,"MEAN_MOTION_DOT":-8.9e-6,"MEAN_MOTION_DDOT":0},{"OBJECT_NAME":"STARLINK-31504","OBJECT_ID":"2024-056H","EPOCH":"2025-09-16T01:06:54.906912","MEAN_MOTION":15.27598222,"ECCENTRICITY":0.00016013,"INCLINATION":43.0042,"RA_OF_ASC_NODE":137.109,"ARG_OF_PERICENTER":259.3163,"MEAN_ANOMALY":100.7508,"EPHEMERIS_TYPE":0,"CLASSIFICATION_TYPE":"U","NORAD_CAT_ID":59303,"ELEMENT_SET_NO":999,"REV_AT_EPOCH":8444,"BSTAR":7.1387791e-5,"MEAN_MOTION_DOT":1.704e-5,"MEAN_MOTION_DDOT":0},{"OBJECT_NAME":"STARLINK-31474","OBJECT_ID":"2024-056J","EPOCH":"2025-09-16T01:04:38.147808","MEAN_MOTION":15.27538916,"ECCENTRICITY":7.209e-5,"INCLINATION":43.0054,"RA_OF_ASC_NODE":130.1723,"ARG_OF_PERICENTER":277.1112,"MEAN_ANOMALY":82.9657,"EPHEMERIS_TYPE":0,"CLASSIFICATION_TYPE":"U","NORAD_CAT_ID":59304,"ELEMENT_SET_NO":999,"REV_AT_EPOCH":8452,"BSTAR":0.00039319995,"MEAN_MOTION_DOT":0.0001056,"MEAN_MOTION_DDOT":0},{"OBJECT_NAME":"STARLINK-31500","OBJECT_ID":"2024-056K","EPOCH":"2025-09-16T08:52:09.786144","MEAN_MOTION":15.27596597,"ECCENTRICITY":0.00014278,"INCLINATION":43.0052,"RA_OF_ASC_NODE":135.2358,"ARG_OF_PERICENTER":287.3931,"MEAN_ANOMALY":72.6765,"EPHEMERIS_TYPE":0,"CLASSIFICATION_TYPE":"U","NORAD_CAT_ID":59305,"ELEMENT_SET_NO":999,"REV_AT_EPOCH":8449,"BSTAR":0.00019474254,"MEAN_MOTION_DOT":5.103e-5,"MEAN_MOTION_DDOT":0},{"OBJECT_NAME":"STARLINK-31480","OBJECT_ID":"2024-056L","EPOCH":"2025-09-16T08:31:50.061792","MEAN_MOTION":15.27571943,"ECCENTRICITY":9.27e-5,"INCLINATION":43.0044,"RA_OF_ASC_NODE":135.1284,"ARG_OF_PERICENTER":293.0331,"MEAN_ANOMALY":67.0423,"EPHEMERIS_TYPE":0,"CLASSIFICATION_TYPE":"U","NORAD_CAT_ID":59306,"ELEMENT_SET_NO":999,"REV_AT_EPOCH":8449,"BSTAR":1.4958194e-5,"MEAN_MOTION_DOT":1.5e-6,"MEAN_MOTION_DDOT":0},{"OBJECT_NAME":"STARLINK-31282","OBJECT_ID":"2024-056M","EPOCH":"2025-09-16T09:03:17.963136","MEAN_MOTION":15.27569424,"ECCENTRICITY":0.00010161,"INCLINATION":43.0043,"RA_OF_ASC_NODE":135.2933,"ARG_OF_PERICENTER":275.311,"MEAN_ANOMALY":84.7626,"EPHEMERIS_TYPE":0,"CLASSIFICATION_TYPE":"U","NORAD_CAT_ID":59307,"ELEMENT_SET_NO":999,"REV_AT_EPOCH":8449,"BSTAR":-3.0498188e-5,"MEAN_MOTION_DOT":-1.101e-5,"MEAN_MOTION_DDOT":0}]
